[{"OBJECT_NAME":"TIANMU-1 12","OBJECT_ID":"2023-205B","EPOCH":"2026-03-09T23:16:21.235872","MEAN_MOTION":15.25812065,"ECCENTRICITY":0.00067383,"INCLINATION":97.3538,"RA_OF_ASC_NODE":91.8946,"ARG_OF_PERICENTER":353.283,"MEAN_ANOMALY":6.8317,"EPHEMERIS_TYPE":0,"CLASSIFICATION_TYPE":"U","NORAD_CAT_ID":58646,"ELEMENT_SET_NO":999,"REV_AT_EPOCH":12237,"BSTAR":0.00029269543,"MEAN_MOTION_DOT":7.417e-5,"MEAN_MOTION_DDOT":0},{"OBJECT_NAME":"COSMOS 886 DEB","OBJECT_ID":"1976-126AA","EPOCH":"2026-03-09T18:20:13.038720","MEAN_MOTION":14.42258421,"ECCENTRICITY":0.03735778,"INCLINATION":65.7678,"RA_OF_ASC_NODE":228.8784,"ARG_OF_PERICENTER":253.0968,"MEAN_ANOMALY":102.8862,"EPHEMERIS_TYPE":0,"CLASSIFICATION_TYPE":"U","NORAD_CAT_ID":9807,"ELEMENT_SET_NO":999,"REV_AT_EPOCH":42056,"BSTAR":0.0018966067,"MEAN_MOTION_DOT":0.00014589,"MEAN_MOTION_DDOT":0}]
